{
  "type": "FeatureCollection",
  "features": [
    {
      "type": "Feature",
      "properties": {
        "norad_id": 32376,
        "name": "COSMO-SKYMED 2",
        "group": "resource",
        "lat": 51.16062358016925,
        "lon": 6.794310986989065,
        "alt_km": 617.1746875776898,
        "timestamp": "2025-12-21T16:47:54.385387+00:00",
        "meta_object_name": "COSMO-SKYMED 2",
        "meta_object_id": "2007-059A",
        "meta_epoch": "2025-12-21T12:58:55.612416",
        "meta_mean_motion": 14.8215268,
        "meta_eccentricity": 0.0001337,
        "meta_inclination": 97.8804,
        "meta_ra_of_asc_node": 176.7322,
        "meta_arg_of_pericenter": 82.9776,
        "meta_mean_anomaly": 277.1589,
        "meta_ephemeris_type": 0,
        "meta_classification_type": "U",
        "meta_norad_cat_id": 32376,
        "meta_element_set_no": 999,
        "meta_rev_at_epoch": 97568,
        "meta_bstar": 6.042e-05,
        "meta_mean_motion_dot": 4.29e-06,
        "meta_mean_motion_ddot": 0,
        "tle_line1": "1 32376U 07059A   25355.54092144  .00000429  00000+0  60420-4 0  9991",
        "tle_line2": "2 32376  97.8804 176.7322 0001337  82.9776 277.1589 14.82152680975681"
      },
      "geometry": {
        "type": "Point",
        "coordinates": [
          6.794310986989065,
          51.16062358016925
        ]
      }
    },
    {
      "type": "Feature",
      "properties": {
        "norad_id": 32382,
        "name": "RADARSAT-2",
        "group": "resource",
        "lat": -16.953441813894273,
        "lon": 177.52220830479166,
        "alt_km": 796.9659566863202,
        "timestamp": "2025-12-21T16:47:54.385401+00:00",
        "meta_object_name": "RADARSAT-2",
        "meta_object_id": "2007-061A",
        "meta_epoch": "2025-12-21T12:31:17.028768",
        "meta_mean_motion": 14.29984086,
        "meta_eccentricity": 0.0001143,
        "meta_inclination": 98.579,
        "meta_ra_of_asc_node": 359.9842,
        "meta_arg_of_pericenter": 83.9203,
        "meta_mean_anomaly": 276.2109,
        "meta_ephemeris_type": 0,
        "meta_classification_type": "U",
        "meta_norad_cat_id": 32382,
        "meta_element_set_no": 999,
        "meta_rev_at_epoch": 94056,
        "meta_bstar": 2.2632e-05,
        "meta_mean_motion_dot": 1.5e-07,
        "meta_mean_motion_ddot": 0,
        "tle_line1": "1 32382U 07061A   25355.52172487  .00000015  00000+0  22632-4 0  9992",
        "tle_line2": "2 32382  98.5790 359.9842 0001143  83.9203 276.2109 14.29984086940564"
      },
      "geometry": {
        "type": "Point",
        "coordinates": [
          177.52220830479166,
          -16.953441813894273
        ]
      }
    },
    {
      "type": "Feature",
      "properties": {
        "norad_id": 32783,
        "name": "CARTOSAT-2A",
        "group": "resource",
        "lat": 15.368038965208328,
        "lon": -132.59939219088747,
        "alt_km": 641.2292198474179,
        "timestamp": "2025-12-21T16:47:54.385413+00:00",
        "meta_object_name": "CARTOSAT-2A",
        "meta_object_id": "2008-021A",
        "meta_epoch": "2025-12-21T11:11:09.525408",
        "meta_mean_motion": 14.78948653,
        "meta_eccentricity": 0.0011204,
        "meta_inclination": 97.7921,
        "meta_ra_of_asc_node": 45.0172,
        "meta_arg_of_pericenter": 336.3512,
        "meta_mean_anomaly": 23.7183,
        "meta_ephemeris_type": 0,
        "meta_classification_type": "U",
        "meta_norad_cat_id": 32783,
        "meta_element_set_no": 999,
        "meta_rev_at_epoch": 95253,
        "meta_bstar": 1.1414e-05,
        "meta_mean_motion_dot": 3.4e-07,
        "meta_mean_motion_ddot": 0,
        "tle_line1": "1 32783U 08021A   25355.46608247  .00000034  00000+0  11414-4 0  9992",
        "tle_line2": "2 32783  97.7921  45.0172 0011204 336.3512  23.7183 14.78948653952533"
      },
      "geometry": {
        "type": "Point",
        "coordinates": [
          -132.59939219088747,
          15.368038965208328
        ]
      }
    },
    {
      "type": "Feature",
      "properties": {
        "norad_id": 33320,
        "name": "HUANJING 1A (HJ-1A)",
        "group": "resource",
        "lat": 6.334686395833822,
        "lon": 164.4795577257649,
        "alt_km": 634.0376344389788,
        "timestamp": "2025-12-21T16:47:54.385424+00:00",
        "meta_object_name": "HUANJING 1A (HJ-1A)",
        "meta_object_id": "2008-041A",
        "meta_epoch": "2025-12-21T12:46:53.056992",
        "meta_mean_motion": 14.83419986,
        "meta_eccentricity": 0.0019504,
        "meta_inclination": 97.6537,
        "meta_ra_of_asc_node": 343.4638,
        "meta_arg_of_pericenter": 6.6276,
        "meta_mean_anomaly": 353.5192,
        "meta_ephemeris_type": 0,
        "meta_classification_type": "U",
        "meta_norad_cat_id": 33320,
        "meta_element_set_no": 999,
        "meta_rev_at_epoch": 93206,
        "meta_bstar": 0.00017555,
        "meta_mean_motion_dot": 1.394e-05,
        "meta_mean_motion_ddot": 0,
        "tle_line1": "1 33320U 08041A   25355.53255853  .00001394  00000+0  17555-3 0  9992",
        "tle_line2": "2 33320  97.6537 343.4638 0019504   6.6276 353.5192 14.83419986932068"
      },
      "geometry": {
        "type": "Point",
        "coordinates": [
          164.4795577257649,
          6.334686395833822
        ]
      }
    },
    {
      "type": "Feature",
      "properties": {
        "norad_id": 33321,
        "name": "HUANJING 1B (HJ-1B)",
        "group": "resource",
        "lat": 15.514217740335564,
        "lon": -14.837545453250122,
        "alt_km": 598.483858044312,
        "timestamp": "2025-12-21T16:47:54.385435+00:00",
        "meta_object_name": "HUANJING 1B (HJ-1B)",
        "meta_object_id": "2008-041B",
        "meta_epoch": "2025-12-21T13:29:22.014240",
        "meta_mean_motion": 14.82843533,
        "meta_eccentricity": 0.0038015,
        "meta_inclination": 97.6397,
        "meta_ra_of_asc_node": 347.166,
        "meta_arg_of_pericenter": 47.8528,
        "meta_mean_anomaly": 312.5905,
        "meta_ephemeris_type": 0,
        "meta_classification_type": "U",
        "meta_norad_cat_id": 33321,
        "meta_element_set_no": 999,
        "meta_rev_at_epoch": 93208,
        "meta_bstar": 0.00014145,
        "meta_mean_motion_dot": 1.108e-05,
        "meta_mean_motion_ddot": 0,
        "tle_line1": "1 33321U 08041B   25355.56206035  .00001108  00000+0  14145-3 0  9999",
        "tle_line2": "2 33321  97.6397 347.1660 0038015  47.8528 312.5905 14.82843533932081"
      },
      "geometry": {
        "type": "Point",
        "coordinates": [
          -14.837545453250122,
          15.514217740335564
        ]
      }
    },
    {
      "type": "Feature",
      "properties": {
        "norad_id": 33331,
        "name": "GEOEYE 1",
        "group": "resource",
        "lat": 39.87555068386886,
        "lon": -106.2788408296959,
        "alt_km": 675.4870879928167,
        "timestamp": "2025-12-21T16:47:54.385446+00:00",
        "meta_object_name": "GEOEYE 1",
        "meta_object_id": "2008-042A",
        "meta_epoch": "2025-12-21T11:14:40.478784",
        "meta_mean_motion": 14.64711172,
        "meta_eccentricity": 0.0002849,
        "meta_inclination": 98.1242,
        "meta_ra_of_asc_node": 66.639,
        "meta_arg_of_pericenter": 246.7043,
        "meta_mean_anomaly": 113.386,
        "meta_ephemeris_type": 0,
        "meta_classification_type": "U",
        "meta_norad_cat_id": 33331,
        "meta_element_set_no": 999,
        "meta_rev_at_epoch": 92413,
        "meta_bstar": 9.776e-05,
        "meta_mean_motion_dot": 4.73e-06,
        "meta_mean_motion_ddot": 0,
        "tle_line1": "1 33331U 08042A   25355.46852406  .00000473  00000+0  97760-4 0  9998",
        "tle_line2": "2 33331  98.1242  66.6390 0002849 246.7043 113.3860 14.64711172924135"
      },
      "geometry": {
        "type": "Point",
        "coordinates": [
          -106.2788408296959,
          39.87555068386886
        ]
      }
    },
    {
      "type": "Feature",
      "properties": {
        "norad_id": 33396,
        "name": "THEOS",
        "group": "resource",
        "lat": -1.294603218421201,
        "lon": 53.720974738536064,
        "alt_km": 828.1765782680077,
        "timestamp": "2025-12-21T16:47:54.385457+00:00",
        "meta_object_name": "THEOS",
        "meta_object_id": "2008-049A",
        "meta_epoch": "2025-12-21T11:43:53.950368",
        "meta_mean_motion": 14.20099366,
        "meta_eccentricity": 0.0001199,
        "meta_inclination": 98.586,
        "meta_ra_of_asc_node": 53.3205,
        "meta_arg_of_pericenter": 94.3648,
        "meta_mean_anomaly": 265.7666,
        "meta_ephemeris_type": 0,
        "meta_classification_type": "U",
        "meta_norad_cat_id": 33396,
        "meta_element_set_no": 999,
        "meta_rev_at_epoch": 89274,
        "meta_bstar": 0.00018388,
        "meta_mean_motion_dot": 3.49e-06,
        "meta_mean_motion_ddot": 0,
        "tle_line1": "1 33396U 08049A   25355.48881887  .00000349  00000+0  18388-3 0  9993",
        "tle_line2": "2 33396  98.5860  53.3205 0001199  94.3648 265.7666 14.20099366892742"
      },
      "geometry": {
        "type": "Point",
        "coordinates": [
          53.720974738536064,
          -1.294603218421201
        ]
      }
    }
  ]
}